LAOSAT 1                
1 41034U 15067A   26202.28534074 -.00000342  00000+0  00000+0 0  9994
2 41034   0.0389 238.8465 0002795 188.4044 103.0290  1.00273329 39208
TELSTAR 12V             
1 41036U 15068A   26202.25691395 -.00000118  00000+0  00000+0 0  9995
2 41036   0.0179  78.2982 0002338  36.9815 261.2161  1.00271460 38963
ELEKTRO-L 2             
1 41105U 15074A   26201.97185448 -.00000122  00000+0  00000+0 0  9999
2 41105   6.7770  70.1076 0000786 227.5423 336.4661  1.00272386 38848
COSMOS 2513             
1 41121U 15075A   26202.02099924 -.00000138  00000+0  00000+0 0  9995
2 41121   0.0587 104.6186 0002364 343.5146 298.4632  1.00273667 38881
EXPRESS-AMU1            
1 41191U 15082A   26202.26705399  .00000156  00000+0  00000+0 0  9995
2 41191   0.0194  60.4712 0002435  60.2336 310.5484  1.00269659 38606
BELINTERSAT-1           
1 41238U 16001A   26202.27000067  .00000108  00000+0  00000+0 0  9997
2 41238   0.0369 237.7582 0001898 191.8428  18.1576  1.00269071 38578
IRNSS-1E                
1 41241U 16003A   26202.03020233 -.00000317  00000+0  00000+0 0  9997
2 41241  33.3051  59.2585 0019282 176.3074 185.9195  1.00275296 38420
EUTELSAT 9B             
1 41310U 16005A   26201.62013211  .00000061  00000+0  00000+0 0  9993
2 41310   0.0498  69.4800 0001261  41.9710  59.1677  1.00273076 38452
SES-9                   
1 41380U 16013A   26202.10198603 -.00000344  00000+0  00000+0 0  9997
2 41380   0.0186 324.2688 0002281 138.5487 341.0644  1.00270275 37786
EUTELSAT 65 WEST A      
1 41382U 16014A   26202.24694722 -.00000275  00000+0  00000+0 0  9991
2 41382   0.0855 299.5958 0002344 174.9028 208.2252  1.00272416 37867
IRNSS-1F                
1 41384U 16015A   26201.91145921  .00000154  00000+0  00000+0 0  9994
2 41384   5.4309  96.0050 0017801 179.6547  23.5708  1.00269281 38004
BEIDOU-2 IGSO-6         
1 41434U 16021A   26177.11016981 -.00000145  00000+0  00000+0 0  9995
2 41434  60.2385  37.9495 0057558 231.0163 137.2672  1.00258926 37578
IRNSS-1G                
1 41469U 16027A   26202.00045461 -.00000338  00000+0  00000+0 0  9995
2 41469   5.2771  96.6929 0005806  12.8391 319.0262  1.00266774 37514
JCSAT-2B                
1 41471U 16028A   26202.21907660 -.00000165  00000+0  00000+0 0  9998
2 41471   0.0172  68.0121 0001092  44.7175  59.1119  1.00270678 37475
THAICOM 8               
1 41552U 16031A   26202.13283431 -.00000120  00000+0  00000+0 0  9997
2 41552   0.0619  38.2912 0003077  38.9484 347.9636  1.00272063 37057
INTELSAT 31 (IS-31)     
1 41581U 16035A   26202.25555104 -.00000150  00000+0  00000+0 0  9998
2 41581   0.0266 266.8002 0000995  47.0114 342.1564  1.00271140 37022
BEIDOU-2 G7             
1 41586U 16037A   26202.28178740 -.00000353  00000+0  00000+0 0  9990
2 41586   1.8028  69.5591 0006112   0.9399  80.5431  1.00270725  7237
ABS-2A (MONGOLSAT-1)    
1 41588U 16038A   26202.13214097 -.00000083  00000+0  00000+0 0  9993
2 41588   0.0081  48.0248 0001799  22.5690 350.5690  1.00270817 37041
EUTELSAT 117 WEST B     
1 41589U 16038B   26202.09416641 -.00000011  00000+0  00000+0 0  9999
2 41589   0.0129 134.2366 0000222  40.9130  40.6074  1.00271129 37003
BRISAT                  
1 41591U 16039A   26202.17614492 -.00000196  00000+0  00000+0 0  9990
2 41591   0.0118  29.0884 0002113  87.3738  36.3776  1.00271040 36956
ECHOSTAR 18             
1 41592U 16039B   26202.24772723 -.00000281  00000+0  00000+0 0  9996
2 41592   0.0191  65.9356 0001695  54.4220 206.4641  1.00273715 36969
MUOS-5                  
1 41622U 16041A   26202.25044965 -.00000149  00000+0  00000+0 0  9997
2 41622   2.1318 302.3448 0199881 260.5042  81.2235  1.00273532 37421
TIANTONG-1 1            
1 41725U 16048A   26202.02891977 -.00000319  00000+0  00000+0 0  9995
2 41725   3.9135  43.6721 0004944  57.3203 309.6039  1.00272833 36618
JCSAT-16                
1 41729U 16050A   26202.28837409 -.00000250  00000+0  00000+0 0  9994
2 41729   0.0185  65.1682 0001098  52.8543  68.7848  1.00270975 36418
USA 270                 
1 41744U 16052A   26201.42942394 -.00000355  00000+0  00000+0 0  9994
2 41744   4.2794  76.7594 0009649 103.0391  39.0344  1.00264644 28461
USA 271                 
1 41745U 16052B   26195.12317037 -.00000300  00000+0  00000+0 0  9994
2 41745   4.2370  76.9135 0011085 165.9764 191.3847  1.00268559 28181
INTELSAT 36 (IS-36)     
1 41747U 16053A   26202.13092764 -.00000024  00000+0  00000+0 0  9997
2 41747   0.0096  27.3690 0002453 322.6502  64.5004  1.00271862 36297
INSAT-3DR               
1 41752U 16054A   26202.20321653 -.00000076  00000+0  00000+0 0  9991
2 41752   0.0846  89.1002 0010312 180.3976 176.6093  1.00271560 36159
GSAT-18                 
1 41793U 16060A   26202.13196764 -.00000076  00000+0  00000+0 0  9998
2 41793   0.0496  91.6982 0005415 349.4523 339.2182  1.00272168 35862
SKY MUSTER 2 (NBN1B)    
1 41794U 16060B   26202.17614492  .00000000  00000+0  00000+0 0  9992
2 41794   0.0156  47.9041 0001762  67.7253  31.5326  1.00270901 35862
HIMAWARI-9              
1 41836U 16064A   26202.28776742 -.00000274  00000+0  00000+0 0  9996
2 41836   0.0179 293.5685 0001456 215.8695  33.9441  1.00270835 35559
