OBJECT_NAME,OBJECT_ID,EPOCH,MEAN_MOTION,ECCENTRICITY,INCLINATION,RA_OF_ASC_NODE,ARG_OF_PERICENTER,MEAN_ANOMALY,EPHEMERIS_TYPE,CLASSIFICATION_TYPE,NORAD_CAT_ID,ELEMENT_SET_NO,REV_AT_EPOCH,BSTAR,MEAN_MOTION_DOT,MEAN_MOTION_DDOT
LAOSAT 1,2015-067A,2026-07-21T06:50:53.439936,1.00273329,.00027956,0.0389,238.8465,188.4044,103.0290,0,U,41034,999,3920,0,-.342E-5,0
TELSTAR 12V,2015-068A,2026-07-21T06:09:57.365280,1.00271460,.00023387,0.0179,78.2982,36.9815,261.2161,0,U,41036,999,3896,0,-.118E-5,0
ELEKTRO-L 2,2015-074A,2026-07-20T23:19:28.227072,1.00272386,.00007868,6.7770,70.1076,227.5423,336.4661,0,U,41105,999,3884,0,-.122E-5,0
COSMOS 2513,2015-075A,2026-07-21T00:30:14.334336,1.00273667,.00023642,0.0587,104.6186,343.5146,298.4632,0,U,41121,999,3888,0,-.138E-5,0
EXPRESS-AMU1,2015-082A,2026-07-21T06:24:33.464736,1.00269659,.00024358,0.0194,60.4712,60.2336,310.5484,0,U,41191,999,3860,0,.156E-5,0
BELINTERSAT-1,2016-001A,2026-07-21T06:28:48.057888,1.00269071,.00018986,0.0369,237.7582,191.8428,18.1576,0,U,41238,999,3857,0,.108E-5,0
IRNSS-1E,2016-003A,2026-07-21T00:43:29.481312,1.00275296,.0019282,33.3051,59.2585,176.3074,185.9195,0,U,41241,999,3842,0,-.317E-5,0
EUTELSAT 9B,2016-005A,2026-07-20T14:52:59.414304,1.00273076,.00012611,0.0498,69.4800,41.9710,59.1677,0,U,41310,999,3845,0,.61E-6,0
SES-9,2016-013A,2026-07-21T02:26:51.592992,1.00270275,.00022811,0.0186,324.2688,138.5487,341.0644,0,U,41380,999,3778,0,-.344E-5,0
EUTELSAT 65 WEST A,2016-014A,2026-07-21T05:55:36.239808,1.00272416,.00023445,0.0855,299.5958,174.9028,208.2252,0,U,41382,999,3786,0,-.275E-5,0
IRNSS-1F,2016-015A,2026-07-20T21:52:30.075744,1.00269281,.00178016,5.4309,96.0050,179.6547,23.5708,0,U,41384,999,3800,0,.154E-5,0
BEIDOU-2 IGSO-6,2016-021A,2026-06-26T02:38:38.671584,1.00258926,.0057558,60.2385,37.9495,231.0163,137.2672,0,U,41434,999,3757,0,-.145E-5,0
IRNSS-1G,2016-027A,2026-07-21T00:00:39.278304,1.00266774,.00058063,5.2771,96.6929,12.8391,319.0262,0,U,41469,999,3751,0,-.338E-5,0
JCSAT-2B,2016-028A,2026-07-21T05:15:28.218240,1.00270678,.00010925,0.0172,68.0121,44.7175,59.1119,0,U,41471,999,3747,0,-.165E-5,0
THAICOM 8,2016-031A,2026-07-21T03:11:16.884384,1.00272063,.0003077,0.0619,38.2912,38.9484,347.9636,0,U,41552,999,3705,0,-.12E-5,0
INTELSAT 31 (IS-31),2016-035A,2026-07-21T06:07:59.609856,1.00271140,.0000995,0.0266,266.8002,47.0114,342.1564,0,U,41581,999,3702,0,-.15E-5,0
BEIDOU-2 G7,2016-037A,2026-07-21T06:45:46.431360,1.00270725,.0006112,1.8028,69.5591,0.9399,80.5431,0,U,41586,999,723,0,-.353E-5,0
ABS-2A (MONGOLSAT-1),2016-038A,2026-07-21T03:10:16.979808,1.00270817,.00017998,0.0081,48.0248,22.5690,350.5690,0,U,41588,999,3704,0,-.83E-6,0
EUTELSAT 117 WEST B,2016-038B,2026-07-21T02:15:35.977824,1.00271129,.00002221,0.0129,134.2366,40.9130,40.6074,0,U,41589,999,3700,0,-.11E-6,0
BRISAT,2016-039A,2026-07-21T04:13:38.921088,1.00271040,.00021137,0.0118,29.0884,87.3738,36.3776,0,U,41591,999,3695,0,-.196E-5,0
ECHOSTAR 18,2016-039B,2026-07-21T05:56:43.632672,1.00273715,.00016956,0.0191,65.9356,54.4220,206.4641,0,U,41592,999,3696,0,-.281E-5,0
MUOS-5,2016-041A,2026-07-21T06:00:38.849760,1.00273532,.0199881,2.1318,302.3448,260.5042,81.2235,0,U,41622,999,3742,0,-.149E-5,0
TIANTONG-1 1,2016-048A,2026-07-21T00:41:38.668128,1.00272833,.00049448,3.9135,43.6721,57.3203,309.6039,0,U,41725,999,3661,0,-.319E-5,0
JCSAT-16,2016-050A,2026-07-21T06:55:15.521376,1.00270975,.00010988,0.0185,65.1682,52.8543,68.7848,0,U,41729,999,3641,0,-.25E-5,0
USA 270,2016-052A,2026-07-20T10:18:22.228416,1.00264644,.0009649,4.2794,76.7594,103.0391,39.0344,0,U,41744,999,2846,0,-.355E-5,0
USA 271,2016-052B,2026-07-14T02:57:21.919968,1.00268559,.0011085,4.2370,76.9135,165.9764,191.3847,0,U,41745,999,2818,0,-.3E-5,0
INTELSAT 36 (IS-36),2016-053A,2026-07-21T03:08:32.148096,1.00271862,.00024538,0.0096,27.3690,322.6502,64.5004,0,U,41747,999,3629,0,-.24E-6,0
INSAT-3DR,2016-054A,2026-07-21T04:52:37.908192,1.00271560,.0010312,0.0846,89.1002,180.3976,176.6093,0,U,41752,999,3615,0,-.76E-6,0
GSAT-18,2016-060A,2026-07-21T03:10:02.004096,1.00272168,.00054154,0.0496,91.6982,349.4523,339.2182,0,U,41793,999,3586,0,-.76E-6,0
SKY MUSTER 2 (NBN1B),2016-060B,2026-07-21T04:13:38.921088,1.00270901,.00017626,0.0156,47.9041,67.7253,31.5326,0,U,41794,999,3586,0,0,0
HIMAWARI-9,2016-064A,2026-07-21T06:54:23.105088,1.00270835,.00014561,0.0179,293.5685,215.8695,33.9441,0,U,41836,999,3555,0,-.274E-5,0
